STARLINK-1011
1 24717C 19074E   21325.13629465  .00005283  00000-0  35397-3 0  3254
2 24717  53.0548  52.6131 0001189  71.2328 259.5734 15.06396654    11
